{"fetched_at":"2026-07-11T09:24:00.837Z","source":"https://celestrak.org/NORAD/elements/gp.php?GROUP=spire&FORMAT=JSON","constellation":"spire","records":[{"OBJECT_NAME":"LEMUR-2-MYRA","OBJECT_ID":"2025-276EC","EPOCH":"2026-07-11T00:03:01.874592","CLASSIFICATION_TYPE":"U","MEAN_MOTION":15.00558625,"ECCENTRICITY":0.0018558,"INCLINATION":97.522,"RA_OF_ASC_NODE":262.1056,"ARG_OF_PERICENTER":66.9551,"MEAN_ANOMALY":293.3628,"EPHEMERIS_TYPE":0,"NORAD_CAT_ID":66787,"ELEMENT_SET_NO":999,"REV_AT_EPOCH":3378,"BSTAR":0.00029407,"MEAN_MOTION_DOT":0.00003666,"MEAN_MOTION_DDOT":0},{"OBJECT_NAME":"LEMUR-2 FIKRETDENGIZ","OBJECT_ID":"2026-004A","EPOCH":"2026-07-09T17:20:41.873568","CLASSIFICATION_TYPE":"U","MEAN_MOTION":14.88491309,"ECCENTRICITY":0.0010439,"INCLINATION":97.8024,"RA_OF_ASC_NODE":188.9369,"ARG_OF_PERICENTER":71.1066,"MEAN_ANOMALY":289.1282,"EPHEMERIS_TYPE":0,"NORAD_CAT_ID":67363,"ELEMENT_SET_NO":999,"REV_AT_EPOCH":2663,"BSTAR":0.00026760836,"MEAN_MOTION_DOT":0.00002433,"MEAN_MOTION_DDOT":0},{"OBJECT_NAME":"TWILIGHT-1 OBJECT B","OBJECT_ID":"2026-004B","EPOCH":"2026-07-10T05:28:19.732224","CLASSIFICATION_TYPE":"U","MEAN_MOTION":14.87783017,"ECCENTRICITY":0.0010013,"INCLINATION":97.8071,"RA_OF_ASC_NODE":189.4384,"ARG_OF_PERICENTER":60.0405,"MEAN_ANOMALY":300.1805,"EPHEMERIS_TYPE":0,"NORAD_CAT_ID":67364,"ELEMENT_SET_NO":999,"REV_AT_EPOCH":2671,"BSTAR":0.00013800507,"MEAN_MOTION_DOT":0.00001206,"MEAN_MOTION_DDOT":0},{"OBJECT_NAME":"LEMUR-2-MARIO-SOUSA","OBJECT_ID":"2026-004C","EPOCH":"2026-07-10T07:23:53.676096","CLASSIFICATION_TYPE":"U","MEAN_MOTION":14.8870321,"ECCENTRICITY":0.0010049,"INCLINATION":97.7996,"RA_OF_ASC_NODE":189.5087,"ARG_OF_PERICENTER":70.706,"MEAN_ANOMALY":289.5243,"EPHEMERIS_TYPE":0,"NORAD_CAT_ID":67365,"ELEMENT_SET_NO":999,"REV_AT_EPOCH":2673,"BSTAR":0.00026917649,"MEAN_MOTION_DOT":0.00002461,"MEAN_MOTION_DDOT":0},{"OBJECT_NAME":"LEMUR-2-SONNENBLUME","OBJECT_ID":"2026-004E","EPOCH":"2026-07-10T18:44:22.053120","CLASSIFICATION_TYPE":"U","MEAN_MOTION":14.88439699,"ECCENTRICITY":0.0009593,"INCLINATION":97.7993,"RA_OF_ASC_NODE":189.9489,"ARG_OF_PERICENTER":70.64,"MEAN_ANOMALY":289.5853,"EPHEMERIS_TYPE":0,"NORAD_CAT_ID":67367,"ELEMENT_SET_NO":999,"REV_AT_EPOCH":2680,"BSTAR":0.00015704,"MEAN_MOTION_DOT":0.00001403,"MEAN_MOTION_DDOT":0},{"OBJECT_NAME":"LEMUR-2-WOBLER","OBJECT_ID":"2026-004F","EPOCH":"2026-07-10T10:26:01.670784","CLASSIFICATION_TYPE":"U","MEAN_MOTION":14.88678189,"ECCENTRICITY":0.00097584,"INCLINATION":97.8048,"RA_OF_ASC_NODE":189.7542,"ARG_OF_PERICENTER":63.1252,"MEAN_ANOMALY":297.0961,"EPHEMERIS_TYPE":0,"NORAD_CAT_ID":67368,"ELEMENT_SET_NO":999,"REV_AT_EPOCH":2675,"BSTAR":0.00023898594,"MEAN_MOTION_DOT":0.00002177,"MEAN_MOTION_DDOT":0},{"OBJECT_NAME":"LEMUR-2-GRAM-E-SUE","OBJECT_ID":"2026-004H","EPOCH":"2026-07-09T10:02:16.225440","CLASSIFICATION_TYPE":"U","MEAN_MOTION":14.88573884,"ECCENTRICITY":0.00088105,"INCLINATION":97.7979,"RA_OF_ASC_NODE":188.6239,"ARG_OF_PERICENTER":76.6994,"MEAN_ANOMALY":283.5205,"EPHEMERIS_TYPE":0,"NORAD_CAT_ID":67370,"ELEMENT_SET_NO":999,"REV_AT_EPOCH":2660,"BSTAR":0.00020247652,"MEAN_MOTION_DOT":0.00001831,"MEAN_MOTION_DDOT":0},{"OBJECT_NAME":"LEMUR-2-KATIE","OBJECT_ID":"2026-004AA","EPOCH":"2026-07-10T18:59:59.736768","CLASSIFICATION_TYPE":"U","MEAN_MOTION":14.90225924,"ECCENTRICITY":0.0003794,"INCLINATION":97.8039,"RA_OF_ASC_NODE":190.5127,"ARG_OF_PERICENTER":43.582,"MEAN_ANOMALY":316.5697,"EPHEMERIS_TYPE":0,"NORAD_CAT_ID":67387,"ELEMENT_SET_NO":999,"REV_AT_EPOCH":2682,"BSTAR":0.00030597,"MEAN_MOTION_DOT":0.00002912,"MEAN_MOTION_DDOT":0},{"OBJECT_NAME":"LEMUR-2-HCS-BAZUS","OBJECT_ID":"2026-004AB","EPOCH":"2026-07-10T23:47:45.442752","CLASSIFICATION_TYPE":"U","MEAN_MOTION":14.90246795,"ECCENTRICITY":0.000329,"INCLINATION":97.803,"RA_OF_ASC_NODE":190.6891,"ARG_OF_PERICENTER":43.2286,"MEAN_ANOMALY":316.9189,"EPHEMERIS_TYPE":0,"NORAD_CAT_ID":67388,"ELEMENT_SET_NO":999,"REV_AT_EPOCH":2685,"BSTAR":0.00015592,"MEAN_MOTION_DOT":0.00001457,"MEAN_MOTION_DDOT":0}]}
